OOV-CUBE (TUBSAT-30)    
1 60240U 24128F   26064.96858841  .00004296  00000+0  32972-3 0  9992
2 60240  61.9943 225.3497 0054810 111.5574 249.1371 15.02215173 90609
COLIBRI-S (RS67S)       
1 61746U 24199M   26065.24824882  .00025764  00000+0  57979-3 0  9999
2 61746  97.3160 298.3939 0007800 300.5540  59.4937 15.43256855121518
HORS 3 (RS81S)          
1 61753U 24199U   26065.28554920  .00033945  00000+0  64690-3 0  9992
2 61753  97.3130 299.5136 0005926 307.8139  52.2575 15.48094911121603
HORS 4 (RS82S)          
1 61754U 24199V   26065.29496058  .00041779  00000+0  72191-3 0  9990
2 61754  97.3103 300.2071 0005536 304.8743  55.1988 15.50852707121650
HORIZON (RS59S)         
1 61757U 24199Y   26065.30399257  .00135756  00000+0  11557-2 0  9995
2 61757  97.3070 303.9591 0003040 272.9332  87.1582 15.69148485121892
ARCTICSAT 1 (RS74S)     
1 61762U 24199AD  26065.30747988  .00101985  00000+0  10334-2 0  9998
2 61762  97.3090 303.5063 0003473 271.8044  88.2818 15.64922754121863
SIT-2086                
1 61764U 24199AF  26065.29495477  .00026656  00000+0  52044-3 0  9997
2 61764  97.3125 300.2580 0006117 287.1852  72.8728 15.47440682118497
RUZAEVKA 390 (RS44S)    
1 61766U 24199AH  26065.30700375  .01424032  13601-2  16841-2 0  9996
2 61766  97.2807 307.4307 0002517 170.3879 189.7453 16.08908983118981
HYPERVIEW 1G (RS66S)    
1 61772U 24199AP  26065.28769372  .00068837  00000+0  93297-3 0  9995
2 61772  97.3086 301.2725 0006747 300.9394  59.1197 15.57426481118577
ALTAIR (RS65S)          
1 61779U 24199AW  26065.24648551  .00012565  00000+0  37239-3 0  9994
2 61779  97.3182 295.3316 0012376 321.9685  38.0684 15.34912620121314
ASRTU-1 (AO-123)        
1 61781U 24199AY  26065.28926602  .00010544  00000+0  32220-3 0  9997
2 61781  97.3155 294.9072 0013130 323.6769  36.3582 15.33979822118143
TUSUR GO (RS78S)        
1 61782U 24199AZ  26065.25430974  .00155343  00000+0  12948-2 0  9998
2 61782  97.3026 302.9169 0003905 295.8400  64.2459 15.69601472118683
SAMSAT-IONOSPHERE (RS7*)
1 61784U 24199BB  26065.24767549  .00043594  00000+0  79702-3 0  9996
2 61784  97.3117 299.2628 0008928 308.8543  51.1911 15.49210641121580
RTU MIREA 1 (RS51S)     
1 61785U 24199BC  26065.24981685  .00048014  00000+0  82113-3 0  9998
2 61785  97.3116 299.6996 0008653 304.4172  55.6261 15.51089100118464
TEVEL2-4                
1 63213U 25052D   26065.22978390  .00021496  00000+0  72449-3 0  9998
2 63213  97.4026 321.6683 0004643 102.3485 257.8276 15.30745860 54346
TEVEL2-5                
1 63214U 25052E   26065.24046753  .00022120  00000+0  74812-3 0  9991
2 63214  97.4024 321.6522 0004606 102.6614 257.5142 15.30628333 54347
