[{"OBJECT_NAME":"OOV-CUBE (TUBSAT-30)","OBJECT_ID":"2024-128F","EPOCH":"2026-03-05T23:14:46.038624","MEAN_MOTION":15.02215173,"ECCENTRICITY":0.00548101,"INCLINATION":61.9943,"RA_OF_ASC_NODE":225.3497,"ARG_OF_PERICENTER":111.5574,"MEAN_ANOMALY":249.1371,"EPHEMERIS_TYPE":0,"CLASSIFICATION_TYPE":"U","NORAD_CAT_ID":60240,"ELEMENT_SET_NO":999,"REV_AT_EPOCH":9060,"BSTAR":0.00032971715,"MEAN_MOTION_DOT":4.296e-5,"MEAN_MOTION_DDOT":0},{"OBJECT_NAME":"COLIBRI-S (RS67S)","OBJECT_ID":"2024-199M","EPOCH":"2026-03-06T05:57:28.698048","MEAN_MOTION":15.43256855,"ECCENTRICITY":0.00078004,"INCLINATION":97.316,"RA_OF_ASC_NODE":298.3939,"ARG_OF_PERICENTER":300.554,"MEAN_ANOMALY":59.4937,"EPHEMERIS_TYPE":0,"CLASSIFICATION_TYPE":"U","NORAD_CAT_ID":61746,"ELEMENT_SET_NO":999,"REV_AT_EPOCH":12151,"BSTAR":0.00057979383,"MEAN_MOTION_DOT":0.00025764,"MEAN_MOTION_DDOT":0},{"OBJECT_NAME":"HORS 3 (RS81S)","OBJECT_ID":"2024-199U","EPOCH":"2026-03-06T06:51:11.450880","MEAN_MOTION":15.48094911,"ECCENTRICITY":0.00059263,"INCLINATION":97.313,"RA_OF_ASC_NODE":299.5136,"ARG_OF_PERICENTER":307.8139,"MEAN_ANOMALY":52.2575,"EPHEMERIS_TYPE":0,"CLASSIFICATION_TYPE":"U","NORAD_CAT_ID":61753,"ELEMENT_SET_NO":999,"REV_AT_EPOCH":12160,"BSTAR":0.00064690053,"MEAN_MOTION_DOT":0.00033945,"MEAN_MOTION_DDOT":0},{"OBJECT_NAME":"HORS 4 (RS82S)","OBJECT_ID":"2024-199V","EPOCH":"2026-03-06T07:04:44.594112","MEAN_MOTION":15.50852707,"ECCENTRICITY":0.00055365,"INCLINATION":97.3103,"RA_OF_ASC_NODE":300.2071,"ARG_OF_PERICENTER":304.8743,"MEAN_ANOMALY":55.1988,"EPHEMERIS_TYPE":0,"CLASSIFICATION_TYPE":"U","NORAD_CAT_ID":61754,"ELEMENT_SET_NO":999,"REV_AT_EPOCH":12165,"BSTAR":0.00072191261,"MEAN_MOTION_DOT":0.00041779,"MEAN_MOTION_DDOT":0},{"OBJECT_NAME":"HORIZON (RS59S)","OBJECT_ID":"2024-199Y","EPOCH":"2026-03-06T07:17:44.958048","MEAN_MOTION":15.69148485,"ECCENTRICITY":0.00030401,"INCLINATION":97.307,"RA_OF_ASC_NODE":303.9591,"ARG_OF_PERICENTER":272.9332,"MEAN_ANOMALY":87.1582,"EPHEMERIS_TYPE":0,"CLASSIFICATION_TYPE":"U","NORAD_CAT_ID":61757,"ELEMENT_SET_NO":999,"REV_AT_EPOCH":12189,"BSTAR":0.0011557403,"MEAN_MOTION_DOT":0.00135756,"MEAN_MOTION_DDOT":0},{"OBJECT_NAME":"ARCTICSAT 1 (RS74S)","OBJECT_ID":"2024-199AD","EPOCH":"2026-03-06T07:22:46.261632","MEAN_MOTION":15.64922754,"ECCENTRICITY":0.00034739,"INCLINATION":97.309,"RA_OF_ASC_NODE":303.5063,"ARG_OF_PERICENTER":271.8044,"MEAN_ANOMALY":88.2818,"EPHEMERIS_TYPE":0,"CLASSIFICATION_TYPE":"U","NORAD_CAT_ID":61762,"ELEMENT_SET_NO":999,"REV_AT_EPOCH":12186,"BSTAR":0.0010333611,"MEAN_MOTION_DOT":0.00101985,"MEAN_MOTION_DDOT":0},{"OBJECT_NAME":"SIT-2086","OBJECT_ID":"2024-199AF","EPOCH":"2026-03-06T07:04:44.092128","MEAN_MOTION":15.47440682,"ECCENTRICITY":0.00061171,"INCLINATION":97.3125,"RA_OF_ASC_NODE":300.258,"ARG_OF_PERICENTER":287.1852,"MEAN_ANOMALY":72.8728,"EPHEMERIS_TYPE":0,"CLASSIFICATION_TYPE":"U","NORAD_CAT_ID":61764,"ELEMENT_SET_NO":999,"REV_AT_EPOCH":11849,"BSTAR":0.00052044136,"MEAN_MOTION_DOT":0.00026656,"MEAN_MOTION_DDOT":0},{"OBJECT_NAME":"RUZAEVKA 390 (RS44S)","OBJECT_ID":"2024-199AH","EPOCH":"2026-03-06T07:22:05.124000","MEAN_MOTION":16.08908983,"ECCENTRICITY":0.00025173,"INCLINATION":97.2807,"RA_OF_ASC_NODE":307.4307,"ARG_OF_PERICENTER":170.3879,"MEAN_ANOMALY":189.7453,"EPHEMERIS_TYPE":0,"CLASSIFICATION_TYPE":"U","NORAD_CAT_ID":61766,"ELEMENT_SET_NO":999,"REV_AT_EPOCH":11898,"BSTAR":0.0016841241,"MEAN_MOTION_DOT":0.01424032,"MEAN_MOTION_DDOT":0.0013600844},{"OBJECT_NAME":"HYPERVIEW 1G (RS66S)","OBJECT_ID":"2024-199AP","EPOCH":"2026-03-06T06:54:16.737408","MEAN_MOTION":15.57426481,"ECCENTRICITY":0.00067475,"INCLINATION":97.3086,"RA_OF_ASC_NODE":301.2725,"ARG_OF_PERICENTER":300.9394,"MEAN_ANOMALY":59.1197,"EPHEMERIS_TYPE":0,"CLASSIFICATION_TYPE":"U","NORAD_CAT_ID":61772,"ELEMENT_SET_NO":999,"REV_AT_EPOCH":11857,"BSTAR":0.00093297337,"MEAN_MOTION_DOT":0.00068837,"MEAN_MOTION_DDOT":0},{"OBJECT_NAME":"ALTAIR (RS65S)","OBJECT_ID":"2024-199AW","EPOCH":"2026-03-06T05:54:56.348064","MEAN_MOTION":15.3491262,"ECCENTRICITY":0.00123767,"INCLINATION":97.3182,"RA_OF_ASC_NODE":295.3316,"ARG_OF_PERICENTER":321.9685,"MEAN_ANOMALY":38.0684,"EPHEMERIS_TYPE":0,"CLASSIFICATION_TYPE":"U","NORAD_CAT_ID":61779,"ELEMENT_SET_NO":999,"REV_AT_EPOCH":12131,"BSTAR":0.0003723855,"MEAN_MOTION_DOT":0.00012565,"MEAN_MOTION_DDOT":0},{"OBJECT_NAME":"ASRTU-1 (AO-123)","OBJECT_ID":"2024-199AY","EPOCH":"2026-03-06T06:56:32.584128","MEAN_MOTION":15.33979822,"ECCENTRICITY":0.001313,"INCLINATION":97.3155,"RA_OF_ASC_NODE":294.9072,"ARG_OF_PERICENTER":323.6769,"MEAN_ANOMALY":36.3582,"EPHEMERIS_TYPE":0,"CLASSIFICATION_TYPE":"U","NORAD_CAT_ID":61781,"ELEMENT_SET_NO":999,"REV_AT_EPOCH":11814,"BSTAR":0.00032220285,"MEAN_MOTION_DOT":0.00010544,"MEAN_MOTION_DDOT":0},{"OBJECT_NAME":"TUSUR GO (RS78S)","OBJECT_ID":"2024-199AZ","EPOCH":"2026-03-06T06:06:12.361536","MEAN_MOTION":15.69601472,"ECCENTRICITY":0.00039053,"INCLINATION":97.3026,"RA_OF_ASC_NODE":302.9169,"ARG_OF_PERICENTER":295.84,"MEAN_ANOMALY":64.2459,"EPHEMERIS_TYPE":0,"CLASSIFICATION_TYPE":"U","NORAD_CAT_ID":61782,"ELEMENT_SET_NO":999,"REV_AT_EPOCH":11868,"BSTAR":0.0012948104,"MEAN_MOTION_DOT":0.00155343,"MEAN_MOTION_DDOT":0},{"OBJECT_NAME":"SAMSAT-IONOSPHERE (RS75S)","OBJECT_ID":"2024-199BB","EPOCH":"2026-03-06T05:56:39.162336","MEAN_MOTION":15.49210641,"ECCENTRICITY":0.00089284,"INCLINATION":97.3117,"RA_OF_ASC_NODE":299.2628,"ARG_OF_PERICENTER":308.8543,"MEAN_ANOMALY":51.1911,"EPHEMERIS_TYPE":0,"CLASSIFICATION_TYPE":"U","NORAD_CAT_ID":61784,"ELEMENT_SET_NO":999,"REV_AT_EPOCH":12158,"BSTAR":0.00079701904,"MEAN_MOTION_DOT":0.00043594,"MEAN_MOTION_DDOT":0},{"OBJECT_NAME":"RTU MIREA 1 (RS51S)","OBJECT_ID":"2024-199BC","EPOCH":"2026-03-06T05:59:44.175840","MEAN_MOTION":15.510891,"ECCENTRICITY":0.00086536,"INCLINATION":97.3116,"RA_OF_ASC_NODE":299.6996,"ARG_OF_PERICENTER":304.4172,"MEAN_ANOMALY":55.6261,"EPHEMERIS_TYPE":0,"CLASSIFICATION_TYPE":"U","NORAD_CAT_ID":61785,"ELEMENT_SET_NO":999,"REV_AT_EPOCH":11846,"BSTAR":0.00082113017,"MEAN_MOTION_DOT":0.00048014,"MEAN_MOTION_DDOT":0},{"OBJECT_NAME":"TEVEL2-4","OBJECT_ID":"2025-052D","EPOCH":"2026-03-06T05:30:53.328960","MEAN_MOTION":15.3074586,"ECCENTRICITY":0.00046432,"INCLINATION":97.4026,"RA_OF_ASC_NODE":321.6683,"ARG_OF_PERICENTER":102.3485,"MEAN_ANOMALY":257.8276,"EPHEMERIS_TYPE":0,"CLASSIFICATION_TYPE":"U","NORAD_CAT_ID":63213,"ELEMENT_SET_NO":999,"REV_AT_EPOCH":5434,"BSTAR":0.00072449187,"MEAN_MOTION_DOT":0.00021496,"MEAN_MOTION_DDOT":0},{"OBJECT_NAME":"TEVEL2-5","OBJECT_ID":"2025-052E","EPOCH":"2026-03-06T05:46:16.394592","MEAN_MOTION":15.30628333,"ECCENTRICITY":0.00046068,"INCLINATION":97.4024,"RA_OF_ASC_NODE":321.6522,"ARG_OF_PERICENTER":102.6614,"MEAN_ANOMALY":257.5142,"EPHEMERIS_TYPE":0,"CLASSIFICATION_TYPE":"U","NORAD_CAT_ID":63214,"ELEMENT_SET_NO":999,"REV_AT_EPOCH":5434,"BSTAR":0.00074811574,"MEAN_MOTION_DOT":0.0002212,"MEAN_MOTION_DDOT":0}]
